[{"OBJECT_NAME":"STARLINK-3680","OBJECT_ID":"2022-025P","EPOCH":"2026-03-09T06:42:53.220960","MEAN_MOTION":15.30084933,"ECCENTRICITY":0.00015454,"INCLINATION":53.1604,"RA_OF_ASC_NODE":26.2267,"ARG_OF_PERICENTER":107.1319,"MEAN_ANOMALY":252.9851,"EPHEMERIS_TYPE":0,"CLASSIFICATION_TYPE":"U","NORAD_CAT_ID":51969,"ELEMENT_SET_NO":999,"REV_AT_EPOCH":22094,"BSTAR":0.001642036,"MEAN_MOTION_DOT":0.00048417,"MEAN_MOTION_DDOT":0},{"OBJECT_NAME":"FLOCK 4BE-27","OBJECT_ID":"2024-149AX","EPOCH":"2026-03-09T18:04:53.053248","MEAN_MOTION":15.32593322,"ECCENTRICITY":0.00027324,"INCLINATION":97.3862,"RA_OF_ASC_NODE":150.6783,"ARG_OF_PERICENTER":305.898,"MEAN_ANOMALY":54.2008,"EPHEMERIS_TYPE":0,"CLASSIFICATION_TYPE":"U","NORAD_CAT_ID":60513,"ELEMENT_SET_NO":999,"REV_AT_EPOCH":8690,"BSTAR":0.00036576028,"MEAN_MOTION_DOT":0.00011439,"MEAN_MOTION_DDOT":0}]
