STARLINK-3680           
1 51969U 22025P   26068.27978265  .00048417  00000+0  16420-2 0  9997
2 51969  53.1604  26.2267 0001545 107.1319 252.9851 15.30084933220948
FLOCK 4BE-27            
1 60513U 24149AX  26068.75339182  .00011439  00000+0  36576-3 0  9992
2 60513  97.3862 150.6783 0002732 305.8980  54.2008 15.32593322 86906
